KINEIS-5C               
1 62081U 24219A   26074.61218104 -.00002371  00000+0 -36694-3 0  9992
2 62081  97.9565 235.9440 0002376 122.8585 237.2851 14.72382467 69980
KINEIS-5D               
1 62082U 24219B   26074.57833338  .00001034  00000+0  17113-3 0  9998
2 62082  97.9500 235.8840 0001802 135.7085 224.4268 14.72359882 69989
KINEIS-5E               
1 62083U 24219C   26074.59508016  .00000895  00000+0  14918-3 0  9997
2 62083  97.9499 236.0906 0004236 129.7262 230.4320 14.72356334 69993
KINEIS-5A               
1 62084U 24219D   26074.62782263  .00000784  00000+0  13215-3 0  9996
2 62084  97.9685 236.2435 0003072 177.7328 182.3894 14.72201909 70005
KINEIS-5B               
1 62085U 24219E   26074.56798413  .00001567  00000+0  22381-3 0  9998
2 62085  97.9948 239.0084 0001924 173.1614 186.9623 14.78096296 70176
STARLINK-11384 [DTC]    
1 62088U 24220A   26074.33335648  .00069018  00000+0  53779-3 0  9995
2 62088  43.0005   9.4348 0001465 288.3581 176.3868 15.70800999  5997
STARLINK-11379 [DTC]    
1 62089U 24220B   26074.11880108 -.00024716  00000+0 -19009-3 0  9994
2 62089  42.9999  10.6508 0001274 283.0707  77.0019 15.70790960 75808
STARLINK-11387 [DTC]    
1 62090U 24220C   26074.11348714  .00239721  00000+0  18097-2 0  9995
2 62090  42.9999  10.6073 0001123 191.5942 168.4900 15.70952880 75900
STARLINK-11389 [DTC]    
1 62091U 24220D   26074.10817646  .00283645  00000+0  21355-2 0  9995
2 62091  43.0001  10.5648 0001821 146.3946 213.7038 15.70884018 75803
STARLINK-11388 [DTC]    
1 62092U 24220E   26074.10287930  .00340550  00000+0  25438-2 0  9998
2 62092  42.9995  10.5219 0001560 140.8281 219.2700 15.70900136 75806
STARLINK-11345 [DTC]    
1 62093U 24220F   26074.09755748  .00198664  00000+0  15137-2 0  9996
2 62093  42.9999  10.4787 0001973 143.6035 216.4967 15.70860716 75809
STARLINK-11381 [DTC]    
1 62094U 24220G   26074.09225243  .00289962  00000+0  21730-2 0  9997
2 62094  42.9993  10.4366 0002369 256.5042 103.5562 15.70974880 75804
STARLINK-11369 [DTC]    
1 62095U 24220H   26074.53203334  .00225312  00000+0  17062-2 0  9996
2 62095  42.9997   7.7118 0001976 270.6429  89.4213 15.70924441 75973
STARLINK-11303 [DTC]    
1 62096U 24220J   26073.82729488  .00284908  00000+0  21295-2 0  9990
2 62096  42.9977  11.8849 0003764 284.1103  75.9346 15.71049379 75869
STARLINK-11367 [DTC]    
1 62097U 24220K   26074.52143399  .00338788  00000+0  25259-2 0  9990
2 62097  42.9992   7.6262 0000838 258.5491 101.5282 15.70949781 75975
STARLINK-11386 [DTC]    
1 62098U 24220L   26074.51611090  .00329794  00000+0  24613-2 0  9998
2 62098  42.9995   7.5831 0001201 341.9940  18.0885 15.70953357 75875
STARLINK-11380 [DTC]    
1 62099U 24220M   26074.51079872  .00185698  00000+0  14156-2 0  9999
2 62099  43.0028   7.5421 0002568 275.8764  84.1811 15.70888866 75871
STARLINK-33566          
1 62100U 24220N   26074.59241640  .00014335  00000+0  52963-3 0  9992
2 62100  43.0008 157.5011 0001334 243.8896 116.1818 15.27567542 74266
STARLINK-33545          
1 62101U 24220P   26074.63675396  .00017557  00000+0  64611-3 0  9999
2 62101  43.0020 171.7069 0001080 282.0165  78.0565 15.27574732 73931
STARLINK-33562          
1 62102U 24220Q   26073.01364840  .00021275  00000+0  77979-3 0  9993
2 62102  42.9963 181.0256 0000136  24.2645 335.8213 15.27605688 73689
STARLINK-33554          
1 62103U 24220R   26074.63289896  .00017322  00000+0  63783-3 0  9996
2 62103  42.9949 171.6772 0001481 276.2029  83.8654 15.27563606 73863
STARLINK-33555          
1 62104U 24220S   26074.60091736  .00028021  00000+0  10240-2 0  9995
2 62104  43.0016 172.2948 0001161 255.2423 104.8301 15.27578201 74066
STARLINK-33559          
1 62107U 24220V   26074.27011768  .00008778  00000+0  32797-3 0  9997
2 62107  42.9988 174.1110 0000953 200.1258 159.9556 15.27594699 74040
STARLINK-33553          
1 62108U 24220W   26073.60855353  .00040870  00000+0  14849-2 0  9996
2 62108  42.9971 177.7464 0001862 172.4325 187.6555 15.27614570 73946
STARLINK-33556          
1 62109U 24220X   26074.64060567  .00025713  00000+0  94044-3 0  9992
2 62109  43.0010 171.7349 0001573 256.8205 103.2472 15.27587348 74127
STARLINK-33551          
1 62110U 24220Y   26073.67779925  .00030200  00000+0  11007-2 0  9995
2 62110  42.9960 177.4115 0000963  82.3081 277.7880 15.27633953 73955
GUANGCHUAN 01           
1 62111U 24221A   26074.59904221  .00003510  00000+0  20594-3 0  9994
2 62111  49.9432 257.5518 0007330 279.4338  80.5783 15.14178063 72002
GUANGCHUAN 02           
1 62112U 24221B   26073.41162888  .00005309  00000+0  30213-3 0  9997
2 62112  49.9417 263.2596 0006389 324.0447  36.0072 15.14287121 71818
STARLINK-32311          
1 62114U 24222A   26074.32271910  .00032467  00000+0  11834-2 0  9990
2 62114  42.9976  89.3873 0002030 268.3994  91.6625 15.27600363 73942
STARLINK-32470          
1 62115U 24222B   26074.46070867  .00023402  00000+0  85736-3 0  9996
2 62115  42.9982 103.4188 0000629 228.9836 131.0961 15.27574783 73786
STARLINK-32502          
1 62116U 24222C   26074.48253847  .00026987  00000+0  98574-3 0  9995
2 62116  43.0006 103.5798 0001567 271.6086  88.4586 15.27609705 73699
STARLINK-32521          
1 62117U 24222D   26074.40348723  .00031150  00000+0  11356-2 0  9996
2 62117  43.0013 100.2711 0000999 294.3740  65.7007 15.27613794 73660
STARLINK-32549          
1 62118U 24222E   26074.44655918  .00034022  00000+0  12394-2 0  9992
2 62118  42.9988 103.3125 0001551 269.9576  90.1098 15.27600511 73691
STARLINK-32535          
1 62119U 24222F   26074.42534780  .00039153  00000+0  14233-2 0  9998
2 62119  42.9969 100.5509 0001419 267.1464  92.9225 15.27614092 73674
STARLINK-32548          
1 62120U 24222G   26074.43129518  .00019799  00000+0  72686-3 0  9991
2 62120  42.9950 104.0532 0000774  20.6283 339.4600 15.27588941 73630
STARLINK-32525          
1 62121U 24222H   26074.38759912  .00035959  00000+0  13086-2 0  9997
2 62121  43.0018 103.7259 0000373 299.8980  60.1835 15.27613552 73634
STARLINK-32628          
1 62122U 24222J   26074.47098059  .00032783  00000+0  11941-2 0  9996
2 62122  43.0002 103.4904 0001279 248.5650 111.5065 15.27619895 73804
STARLINK-32626          
1 62123U 24222K   26074.49024843  .00026043  00000+0  95169-3 0  9996
2 62123  43.0012 103.6340 0001662 267.7659  92.3003 15.27610727 73634
STARLINK-32608          
1 62124U 24222L   26074.46455306  .00027305  00000+0  99740-3 0  9997
2 62124  43.0000 103.4450 0000471 238.7374 121.3432 15.27603040 73629
STARLINK-32488          
1 62125U 24222M   26074.43514746  .00029182  00000+0  10645-2 0  9990
2 62125  42.9957 104.0776 0000239  69.5779 290.5098 15.27618890 73523
STARLINK-32490          
1 62126U 24222N   26074.38374640  .00028109  00000+0  10258-2 0  9990
2 62126  42.9998 103.6981 0000493 261.4973  98.5823 15.27621793 73622
STARLINK-32557          
1 62127U 24222P   26074.46854877  .00019297  00000+0  70867-3 0  9996
2 62127  42.9975  92.9428 0001056 275.7371  84.3360 15.27591149 73800
STARLINK-32568          
1 62128U 24222Q   26074.48639287  .00021905  00000+0  80252-3 0  9993
2 62128  43.0012 103.6047 0001686 261.4393  98.6268 15.27606584 73374
STARLINK-32462          
1 62129U 24222R   26074.48431669  .00027136  00000+0  99207-3 0  9990
2 62129  43.0002 100.1329 0001748 272.6314  87.4337 15.27577059 73675
STARLINK-32463          
1 62130U 24222S   26074.45684393  .00020932  00000+0  76784-3 0  9995
2 62130  43.0003 103.3850 0000258 346.6631  13.4214 15.27588002 73630
STARLINK-32550          
1 62131U 24222T   26074.36204629  .00026949  00000+0  98443-3 0  9996
2 62131  42.9960 104.3879 0001169 251.6534 108.4191 15.27607456 73669
STARLINK-32507          
1 62132U 24222U   26074.44270599  .00033352  00000+0  12154-2 0  9995
2 62132  42.9977 103.2814 0001224 272.5960  87.4751 15.27596000 73482
STARLINK-32245          
1 62133U 24222V   26074.47869299  .00019299  00000+0  70845-3 0  9996
2 62133  43.0042 103.5484 0001578   5.3644 354.7225 15.27605528 73793
STARLINK-32546          
1 62134U 24222W   26074.42277627  .00030932  00000+0  11281-2 0  9995
2 62134  42.9884 100.5264 0001612 270.9070  89.1597 15.27602517 73551
STARLINK-32545          
1 62135U 24222X   26074.50440531  .00027345  00000+0  99886-3 0  9993
2 62135  43.0002 103.7416 0001042 256.0948 103.9788 15.27602109 73684
STARLINK-32554          
1 62136U 24222Y   26074.46840650  .00029099  00000+0  10620-2 0  9991
2 62136  43.0006 103.4683 0001024 245.8069 114.2676 15.27603786 73685
STARLINK-32570          
1 62137U 24222Z   26074.47485536  .00034701  00000+0  12653-2 0  9995
2 62137  43.0036 103.5179 0001933 254.0103 106.0535 15.27562877 73789
KONDOR-FKA NO. 2        
1 62138U 24223A   26073.16656234  .00002619  00000+0  12582-3 0  9992
2 62138  97.4350 277.9922 0001696  86.3192 273.8237 15.19714068 71270
STARLINK-32529          
1 62139U 24224A   26074.48372331  .00025472  00000+0  93194-3 0  9993
2 62139  42.9994 125.6188 0001820 255.8538 104.2112 15.27579922 73301
STARLINK-32464          
1 62140U 24224B   26074.55679981  .00016091  00000+0  59271-3 0  9999
2 62140  42.9977 125.2887 0001653 265.2423  94.8240 15.27595328 73313
STARLINK-32482          
1 62141U 24224C   26074.51825472  .00022904  00000+0  83854-3 0  9998
2 62141  42.9995 125.0023 0000234 223.7596 136.3237 15.27607353 73217
STARLINK-32454          
1 62142U 24224D   26074.51358381  .00032566  00000+0  11876-2 0  9998
2 62142  42.9959 132.7384 0001372 267.9495  92.1200 15.27582086 73286
STARLINK-32485          
1 62143U 24224E   26074.51134980  .00023496  00000+0  86017-3 0  9998
2 62143  42.9994 128.4060 0000803  62.2737 297.8196 15.27597312 72906
STARLINK-32388          
1 62144U 24224F   26074.50973670  .00019739  00000+0  72530-3 0  9995
2 62144  42.9946 132.7082 0000770  12.5378 347.5492 15.27562524 73289
